0 FENGYUN 1C DEB
1 31917U 99025CLU 13284.30026704  .00000829  00000-0  28134-3 0  4395
2 31917 098.7454 320.3824 0219341 096.1522 266.4722 14.26651711329712
0 FENGYUN 1C DEB
1 31917U 99025CLU 13286.33414927  .00000842  00000-0  28559-3 0  4406
2 31917 098.7449 322.4155 0219425 090.2644 272.3699 14.26655686330007
0 FENGYUN 1C DEB
1 31917U 99025CLU 13289.27975234  .00000863  00000-0  29173-3 0  4412
2 31917 098.7442 325.3578 0219891 081.7348 280.8738 14.26661655330421
0 FENGYUN 1C DEB
1 31917U 99025CLU 13293.34745285  .00000898  00000-0  30336-3 0  4428
2 31917 098.7417 329.4165 0219525 069.8268 292.6549 14.26670349331008
0 FENGYUN 1C DEB
1 31917U 99025CLU 13294.32930214  .00000939  00000-0  31685-3 0  4430
2 31917 098.7410 330.3974 0219008 066.7871 295.6576 14.26673621331146
0 FENGYUN 1C DEB
1 31917U 99025CLU 13295.87219986  .00000972  00000-0  32662-3 0  4441
2 31917 098.7407 331.9349 0220051 062.7712 299.6015 14.26677803331367
